ONEWEB-0102             
1 47258U 20100A   25023.71803830  .00000333  00000+0  88981-3 0  9996
2 47258  87.8855  92.1274 0001979 101.8894 258.2456 13.12440559197903
ONEWEB-0109             
1 47259U 20100B   25023.72614665  .00000102  00000+0  24710-3 0  9998
2 47259  87.8855  92.0929 0001919 104.2378 255.8964 13.12442228197731
ONEWEB-0110             
1 47260U 20100C   25023.67585617 -.00000413  00000+0 -11832-2 0  9995
2 47260  87.8854  92.0952 0001894 106.3677 253.7660 13.12443292197894
ONEWEB-0111             
1 47261U 20100D   25023.70668621  .00000429  00000+0  11571-2 0  9992
2 47261  87.8855  92.0966 0001898 102.6707 257.4634 13.12442131197734
ONEWEB-0114             
1 47262U 20100E   25023.73749982 -.00000249  00000+0 -72847-3 0  9992
2 47262  87.8851  92.0967 0002212  99.4949 260.6429 13.12441933197696
ONEWEB-0117             
1 47263U 20100F   25023.72938588  .00000032  00000+0  52895-4 0  9994
2 47263  87.8854  92.0833 0001800 103.1498 256.9832 13.12442000197700
ONEWEB-0118             
1 47264U 20100G   25023.68560209 -.00000351  00000+0 -10121-2 0  9991
2 47264  87.8856  92.0940 0002042  93.4619 266.6743 13.12443736197893
ONEWEB-0119             
1 47265U 20100H   25023.71317408  .00000459  00000+0  12411-2 0  9998
2 47265  87.8852  92.1277 0001861 103.4543 256.6793 13.12441563197878
